{
  "type": "FeatureCollection",
  "features": [
    {
      "type": "Feature",
      "properties": {
        "norad_id": 66625,
        "name": "STARLINK-35929",
        "group": "last-30-days",
        "lat": 53.11392084121822,
        "lon": -136.0314855646795,
        "alt_km": 439.49381130821985,
        "timestamp": "2025-12-23T09:49:05.795653+00:00",
        "meta_object_name": "STARLINK-35929",
        "meta_object_id": "2025-271J",
        "meta_epoch": "2025-12-22T22:00:03.000096",
        "meta_mean_motion": 15.39580281,
        "meta_eccentricity": 8.406e-05,
        "meta_inclination": 53.1603,
        "meta_ra_of_asc_node": 138.8223,
        "meta_arg_of_pericenter": 79.1294,
        "meta_mean_anomaly": 158.6823,
        "meta_ephemeris_type": 0,
        "meta_classification_type": "U",
        "meta_norad_cat_id": 66625,
        "meta_element_set_no": 999,
        "meta_rev_at_epoch": 587,
        "meta_bstar": 0.0012779919,
        "meta_mean_motion_dot": 0.00050994,
        "meta_mean_motion_ddot": 0,
        "tle_line1": "1 66625U 25271J   25356.91670139  .00050994  00000+0  12780-2 0  9995",
        "tle_line2": "2 66625  53.1603 138.8223 0000840  79.1294 158.6823 15.39580281  5871"
      },
      "geometry": {
        "type": "Point",
        "coordinates": [
          -136.0314855646795,
          53.11392084121822
        ]
      }
    },
    {
      "type": "Feature",
      "properties": {
        "norad_id": 66626,
        "name": "STARLINK-35902",
        "group": "last-30-days",
        "lat": 8.913424673076342,
        "lon": 143.40651646068184,
        "alt_km": 446.5995589225795,
        "timestamp": "2025-12-23T09:49:05.795664+00:00",
        "meta_object_name": "STARLINK-35902",
        "meta_object_id": "2025-271K",
        "meta_epoch": "2025-12-22T19:44:54.680640",
        "meta_mean_motion": 15.39621347,
        "meta_eccentricity": 9.707e-05,
        "meta_inclination": 53.1607,
        "meta_ra_of_asc_node": 139.4172,
        "meta_arg_of_pericenter": 76.8185,
        "meta_mean_anomaly": 283.2929,
        "meta_ephemeris_type": 0,
        "meta_classification_type": "U",
        "meta_norad_cat_id": 66626,
        "meta_element_set_no": 999,
        "meta_rev_at_epoch": 576,
        "meta_bstar": 0.00029892068,
        "meta_mean_motion_dot": 0.00011576,
        "meta_mean_motion_ddot": 0,
        "tle_line1": "1 66626U 25271K   25356.82285510  .00011576  00000+0  29892-3 0  9997",
        "tle_line2": "2 66626  53.1607 139.4172 0000970  76.8185 283.2929 15.39621347  5762"
      },
      "geometry": {
        "type": "Point",
        "coordinates": [
          143.40651646068184,
          8.913424673076342
        ]
      }
    },
    {
      "type": "Feature",
      "properties": {
        "norad_id": 66627,
        "name": "STARLINK-35904",
        "group": "last-30-days",
        "lat": 45.3381932898333,
        "lon": -174.1089062628534,
        "alt_km": 440.68275455526236,
        "timestamp": "2025-12-23T09:49:05.795674+00:00",
        "meta_object_name": "STARLINK-35904",
        "meta_object_id": "2025-271L",
        "meta_epoch": "2025-12-22T19:31:32.338272",
        "meta_mean_motion": 15.39618173,
        "meta_eccentricity": 7.079e-05,
        "meta_inclination": 53.1608,
        "meta_ra_of_asc_node": 139.3573,
        "meta_arg_of_pericenter": 95.2529,
        "meta_mean_anomaly": 264.8557,
        "meta_ephemeris_type": 0,
        "meta_classification_type": "U",
        "meta_norad_cat_id": 66627,
        "meta_element_set_no": 999,
        "meta_rev_at_epoch": 572,
        "meta_bstar": 0.00079469087,
        "meta_mean_motion_dot": 0.00031517,
        "meta_mean_motion_ddot": 0,
        "tle_line1": "1 66627U 25271L   25356.81356873  .00031517  00000+0  79469-3 0  9990",
        "tle_line2": "2 66627  53.1608 139.3573 0000707  95.2529 264.8557 15.39618173  5724"
      },
      "geometry": {
        "type": "Point",
        "coordinates": [
          -174.1089062628534,
          45.3381932898333
        ]
      }
    },
    {
      "type": "Feature",
      "properties": {
        "norad_id": 66628,
        "name": "STARLINK-35862",
        "group": "last-30-days",
        "lat": -10.193035890025698,
        "lon": -35.95891227168451,
        "alt_km": 445.64235048537375,
        "timestamp": "2025-12-23T09:49:05.795685+00:00",
        "meta_object_name": "STARLINK-35862",
        "meta_object_id": "2025-271M",
        "meta_epoch": "2025-12-22T22:00:03.000096",
        "meta_mean_motion": 15.43176086,
        "meta_eccentricity": 0.00010455,
        "meta_inclination": 53.1608,
        "meta_ra_of_asc_node": 138.6235,
        "meta_arg_of_pericenter": 65.4396,
        "meta_mean_anomaly": 272.1584,
        "meta_ephemeris_type": 0,
        "meta_classification_type": "U",
        "meta_norad_cat_id": 66628,
        "meta_element_set_no": 999,
        "meta_rev_at_epoch": 587,
        "meta_bstar": -0.050569139,
        "meta_mean_motion_dot": -0.02026619,
        "meta_mean_motion_ddot": 0,
        "tle_line1": "1 66628U 25271M   25356.91670139 -.02026619  00000+0 -50569-1 0  9995",
        "tle_line2": "2 66628  53.1608 138.6235 0001045  65.4396 272.1584 15.43176086  5874"
      },
      "geometry": {
        "type": "Point",
        "coordinates": [
          -35.95891227168451,
          -10.193035890025698
        ]
      }
    },
    {
      "type": "Feature",
      "properties": {
        "norad_id": 66629,
        "name": "STARLINK-35956",
        "group": "last-30-days",
        "lat": -51.466197258811995,
        "lon": 26.447370505799714,
        "alt_km": 423.09212068321176,
        "timestamp": "2025-12-23T09:49:05.795697+00:00",
        "meta_object_name": "STARLINK-35956",
        "meta_object_id": "2025-271N",
        "meta_epoch": "2025-12-18T16:00:00.999936",
        "meta_mean_motion": 15.49463337,
        "meta_eccentricity": 5.424e-05,
        "meta_inclination": 53.1591,
        "meta_ra_of_asc_node": 158.846,
        "meta_arg_of_pericenter": 63.7637,
        "meta_mean_anomaly": 4.4961,
        "meta_ephemeris_type": 0,
        "meta_classification_type": "U",
        "meta_norad_cat_id": 66629,
        "meta_element_set_no": 999,
        "meta_rev_at_epoch": 519,
        "meta_bstar": 0.0002238515,
        "meta_mean_motion_dot": 0.00012088,
        "meta_mean_motion_ddot": 0,
        "tle_line1": "1 66629U 25271N   25352.66667824  .00012088  00000+0  22385-3 0  9999",
        "tle_line2": "2 66629  53.1591 158.8460 0000542  63.7637   4.4961 15.49463337  5194"
      },
      "geometry": {
        "type": "Point",
        "coordinates": [
          26.447370505799714,
          -51.466197258811995
        ]
      }
    },
    {
      "type": "Feature",
      "properties": {
        "norad_id": 66630,
        "name": "STARLINK-35949",
        "group": "last-30-days",
        "lat": -19.78125894906012,
        "lon": -28.08906643798503,
        "alt_km": 433.49837223700706,
        "timestamp": "2025-12-23T09:49:05.795707+00:00",
        "meta_object_name": "STARLINK-35949",
        "meta_object_id": "2025-271P",
        "meta_epoch": "2025-12-22T22:00:03.000096",
        "meta_mean_motion": 15.45583681,
        "meta_eccentricity": 0.00010823,
        "meta_inclination": 53.1606,
        "meta_ra_of_asc_node": 138.6102,
        "meta_arg_of_pericenter": 63.2822,
        "meta_mean_anomaly": 280.4178,
        "meta_ephemeris_type": 0,
        "meta_classification_type": "U",
        "meta_norad_cat_id": 66630,
        "meta_element_set_no": 999,
        "meta_rev_at_epoch": 587,
        "meta_bstar": -0.0014156582,
        "meta_mean_motion_dot": -0.00068991,
        "meta_mean_motion_ddot": 0,
        "tle_line1": "1 66630U 25271P   25356.91670139 -.00068991  00000+0 -14157-2 0  9999",
        "tle_line2": "2 66630  53.1606 138.6102 0001082  63.2822 280.4178 15.45583681  5875"
      },
      "geometry": {
        "type": "Point",
        "coordinates": [
          -28.08906643798503,
          -19.78125894906012
        ]
      }
    },
    {
      "type": "Feature",
      "properties": {
        "norad_id": 66631,
        "name": "STARLINK-35965",
        "group": "last-30-days",
        "lat": -21.24944690868056,
        "lon": -26.784787191816186,
        "alt_km": 433.80673737763755,
        "timestamp": "2025-12-23T09:49:05.795720+00:00",
        "meta_object_name": "STARLINK-35965",
        "meta_object_id": "2025-271Q",
        "meta_epoch": "2025-12-22T22:00:03.000096",
        "meta_mean_motion": 15.45599199,
        "meta_eccentricity": 0.00011898,
        "meta_inclination": 53.1606,
        "meta_ra_of_asc_node": 138.607,
        "meta_arg_of_pericenter": 55.8657,
        "meta_mean_anomaly": 289.7496,
        "meta_ephemeris_type": 0,
        "meta_classification_type": "U",
        "meta_norad_cat_id": 66631,
        "meta_element_set_no": 999,
        "meta_rev_at_epoch": 587,
        "meta_bstar": -0.0020904582,
        "meta_mean_motion_dot": -0.00101308,
        "meta_mean_motion_ddot": 0,
        "tle_line1": "1 66631U 25271Q   25356.91670139 -.00101308  00000+0 -20905-2 0  9998",
        "tle_line2": "2 66631  53.1606 138.6070 0001189  55.8657 289.7496 15.45599199  5877"
      },
      "geometry": {
        "type": "Point",
        "coordinates": [
          -26.784787191816186,
          -21.24944690868056
        ]
      }
    }
  ]
}